[{"OBJECT_NAME":"KUIPER-00275","OBJECT_ID":"2026-030AF","EPOCH":"2026-03-03T23:32:29.771232","MEAN_MOTION":15.34466074,"ECCENTRICITY":0.0008948,"INCLINATION":51.8836,"RA_OF_ASC_NODE":246.8106,"ARG_OF_PERICENTER":36.3668,"MEAN_ANOMALY":323.7924,"EPHEMERIS_TYPE":0,"CLASSIFICATION_TYPE":"U","NORAD_CAT_ID":67793,"ELEMENT_SET_NO":999,"REV_AT_EPOCH":421,"BSTAR":0.0012453,"MEAN_MOTION_DOT":0.00042109,"MEAN_MOTION_DDOT":0},{"OBJECT_NAME":"KUIPER-00276","OBJECT_ID":"2026-030AG","EPOCH":"2026-03-04T00:15:23.425056","MEAN_MOTION":15.31388844,"ECCENTRICITY":0.0018665,"INCLINATION":51.8812,"RA_OF_ASC_NODE":246.9957,"ARG_OF_PERICENTER":50.7357,"MEAN_ANOMALY":309.5279,"EPHEMERIS_TYPE":0,"CLASSIFICATION_TYPE":"U","NORAD_CAT_ID":67794,"ELEMENT_SET_NO":999,"REV_AT_EPOCH":421,"BSTAR":0.00065804,"MEAN_MOTION_DOT":0.00020027,"MEAN_MOTION_DDOT":0},{"OBJECT_NAME":"KUIPER-00279","OBJECT_ID":"2026-030AH","EPOCH":"2026-03-03T23:23:39.335712","MEAN_MOTION":15.3511112,"ECCENTRICITY":0.0006293,"INCLINATION":51.8794,"RA_OF_ASC_NODE":246.7601,"ARG_OF_PERICENTER":32.6075,"MEAN_ANOMALY":327.5298,"EPHEMERIS_TYPE":0,"CLASSIFICATION_TYPE":"U","NORAD_CAT_ID":67795,"ELEMENT_SET_NO":999,"REV_AT_EPOCH":421,"BSTAR":0.00095812,"MEAN_MOTION_DOT":0.00032925,"MEAN_MOTION_DDOT":0},{"OBJECT_NAME":"CREW DRAGON 12","OBJECT_ID":"2026-031A","EPOCH":"2026-03-04T03:45:47.118240","MEAN_MOTION":15.48434477,"ECCENTRICITY":0.0008201,"INCLINATION":51.6316,"RA_OF_ASC_NODE":99.7104,"ARG_OF_PERICENTER":155.0339,"MEAN_ANOMALY":205.1047,"EPHEMERIS_TYPE":0,"CLASSIFICATION_TYPE":"U","NORAD_CAT_ID":67796,"ELEMENT_SET_NO":999,"REV_AT_EPOCH":55579,"BSTAR":0.00019684,"MEAN_MOTION_DOT":0.00010207,"MEAN_MOTION_DDOT":0},{"OBJECT_NAME":"STARLINK-36800","OBJECT_ID":"2026-032A","EPOCH":"2026-03-04T02:28:27.363072","MEAN_MOTION":15.7524612,"ECCENTRICITY":0.0001722,"INCLINATION":97.2836,"RA_OF_ASC_NODE":249.3103,"ARG_OF_PERICENTER":91.0621,"MEAN_ANOMALY":269.0841,"EPHEMERIS_TYPE":0,"CLASSIFICATION_TYPE":"U","NORAD_CAT_ID":67797,"ELEMENT_SET_NO":999,"REV_AT_EPOCH":390,"BSTAR":0.0012952,"MEAN_MOTION_DOT":0.00198092,"MEAN_MOTION_DDOT":0},{"OBJECT_NAME":"STARLINK-36798","OBJECT_ID":"2026-032B","EPOCH":"2026-03-04T04:00:03.000096","MEAN_MOTION":15.78148275,"ECCENTRICITY":0.0002063,"INCLINATION":97.2838,"RA_OF_ASC_NODE":249.416,"ARG_OF_PERICENTER":80.7038,"MEAN_ANOMALY":8.2191,"EPHEMERIS_TYPE":0,"CLASSIFICATION_TYPE":"U","NORAD_CAT_ID":67798,"ELEMENT_SET_NO":999,"REV_AT_EPOCH":383,"BSTAR":-0.013461,"MEAN_MOTION_DOT":-0.01982814,"MEAN_MOTION_DDOT":0},{"OBJECT_NAME":"STARLINK-36804","OBJECT_ID":"2026-032C","EPOCH":"2026-03-04T02:25:54.774624","MEAN_MOTION":15.7527397,"ECCENTRICITY":0.0001798,"INCLINATION":97.2834,"RA_OF_ASC_NODE":249.3125,"ARG_OF_PERICENTER":79.8543,"MEAN_ANOMALY":280.2925,"EPHEMERIS_TYPE":0,"CLASSIFICATION_TYPE":"U","NORAD_CAT_ID":67799,"ELEMENT_SET_NO":999,"REV_AT_EPOCH":390,"BSTAR":0.0015788,"MEAN_MOTION_DOT":0.00243074,"MEAN_MOTION_DDOT":0},{"OBJECT_NAME":"STARLINK-36354","OBJECT_ID":"2026-032D","EPOCH":"2026-03-04T04:00:03.000096","MEAN_MOTION":15.7526738,"ECCENTRICITY":0.0001883,"INCLINATION":97.2841,"RA_OF_ASC_NODE":249.4099,"ARG_OF_PERICENTER":97.3073,"MEAN_ANOMALY":335.2565,"EPHEMERIS_TYPE":0,"CLASSIFICATION_TYPE":"U","NORAD_CAT_ID":67800,"ELEMENT_SET_NO":999,"REV_AT_EPOCH":389,"BSTAR":-0.0010792,"MEAN_MOTION_DOT":-0.00158691,"MEAN_MOTION_DDOT":0},{"OBJECT_NAME":"STARLINK-36773","OBJECT_ID":"2026-032E","EPOCH":"2026-03-04T04:00:03.000096","MEAN_MOTION":15.7518713,"ECCENTRICITY":0.0001491,"INCLINATION":97.2838,"RA_OF_ASC_NODE":249.3903,"ARG_OF_PERICENTER":91.3891,"MEAN_ANOMALY":297.2162,"EPHEMERIS_TYPE":0,"CLASSIFICATION_TYPE":"U","NORAD_CAT_ID":67801,"ELEMENT_SET_NO":999,"REV_AT_EPOCH":383,"BSTAR":-0.00023861,"MEAN_MOTION_DOT":-0.00035567,"MEAN_MOTION_DDOT":0},{"OBJECT_NAME":"STARLINK-36739","OBJECT_ID":"2026-032F","EPOCH":"2026-03-04T03:29:54.120192","MEAN_MOTION":15.80924847,"ECCENTRICITY":0.0001246,"INCLINATION":97.2841,"RA_OF_ASC_NODE":249.405,"ARG_OF_PERICENTER":88.5871,"MEAN_ANOMALY":271.554,"EPHEMERIS_TYPE":0,"CLASSIFICATION_TYPE":"U","NORAD_CAT_ID":67802,"ELEMENT_SET_NO":999,"REV_AT_EPOCH":391,"BSTAR":0.0010416,"MEAN_MOTION_DOT":0.00205157,"MEAN_MOTION_DDOT":0},{"OBJECT_NAME":"STARLINK-36768","OBJECT_ID":"2026-032G","EPOCH":"2026-03-04T04:00:03.000096","MEAN_MOTION":15.75145886,"ECCENTRICITY":0.0001575,"INCLINATION":97.2838,"RA_OF_ASC_NODE":249.4044,"ARG_OF_PERICENTER":95.3037,"MEAN_ANOMALY":327.3079,"EPHEMERIS_TYPE":0,"CLASSIFICATION_TYPE":"U","NORAD_CAT_ID":67803,"ELEMENT_SET_NO":999,"REV_AT_EPOCH":389,"BSTAR":0.00039192,"MEAN_MOTION_DOT":0.00058619,"MEAN_MOTION_DDOT":0},{"OBJECT_NAME":"STARLINK-36792","OBJECT_ID":"2026-032H","EPOCH":"2026-03-04T04:00:03.000096","MEAN_MOTION":15.75180799,"ECCENTRICITY":0.0001628,"INCLINATION":97.2837,"RA_OF_ASC_NODE":249.3978,"ARG_OF_PERICENTER":78.1665,"MEAN_ANOMALY":330.4368,"EPHEMERIS_TYPE":0,"CLASSIFICATION_TYPE":"U","NORAD_CAT_ID":67804,"ELEMENT_SET_NO":999,"REV_AT_EPOCH":383,"BSTAR":-0.00012177,"MEAN_MOTION_DOT":-0.00018247,"MEAN_MOTION_DDOT":0},{"OBJECT_NAME":"STARLINK-36782","OBJECT_ID":"2026-032J","EPOCH":"2026-03-04T03:27:25.062912","MEAN_MOTION":15.80958294,"ECCENTRICITY":0.0001426,"INCLINATION":97.2834,"RA_OF_ASC_NODE":249.4068,"ARG_OF_PERICENTER":86.6252,"MEAN_ANOMALY":273.5179,"EPHEMERIS_TYPE":0,"CLASSIFICATION_TYPE":"U","NORAD_CAT_ID":67805,"ELEMENT_SET_NO":999,"REV_AT_EPOCH":391,"BSTAR":0.0015023,"MEAN_MOTION_DOT":0.00299669,"MEAN_MOTION_DDOT":0},{"OBJECT_NAME":"STARLINK-36389","OBJECT_ID":"2026-032K","EPOCH":"2026-03-04T04:00:03.000096","MEAN_MOTION":15.75191211,"ECCENTRICITY":0.000184,"INCLINATION":97.2838,"RA_OF_ASC_NODE":249.4246,"ARG_OF_PERICENTER":85.6213,"MEAN_ANOMALY":26.9546,"EPHEMERIS_TYPE":0,"CLASSIFICATION_TYPE":"U","NORAD_CAT_ID":67806,"ELEMENT_SET_NO":999,"REV_AT_EPOCH":389,"BSTAR":-0.00013075,"MEAN_MOTION_DOT":-0.00019589,"MEAN_MOTION_DDOT":0},{"OBJECT_NAME":"STARLINK-36382","OBJECT_ID":"2026-032L","EPOCH":"2026-03-04T04:00:03.000096","MEAN_MOTION":15.75215109,"ECCENTRICITY":0.00019,"INCLINATION":97.2839,"RA_OF_ASC_NODE":249.429,"ARG_OF_PERICENTER":83.1959,"MEAN_ANOMALY":41.3539,"EPHEMERIS_TYPE":0,"CLASSIFICATION_TYPE":"U","NORAD_CAT_ID":67807,"ELEMENT_SET_NO":999,"REV_AT_EPOCH":383,"BSTAR":-0.00036755,"MEAN_MOTION_DOT":-0.00054666,"MEAN_MOTION_DDOT":0},{"OBJECT_NAME":"STARLINK-36811","OBJECT_ID":"2026-032M","EPOCH":"2026-03-04T03:22:39.383040","MEAN_MOTION":15.80904516,"ECCENTRICITY":0.0001647,"INCLINATION":97.2833,"RA_OF_ASC_NODE":249.4109,"ARG_OF_PERICENTER":65.1467,"MEAN_ANOMALY":294.9973,"EPHEMERIS_TYPE":0,"CLASSIFICATION_TYPE":"U","NORAD_CAT_ID":67808,"ELEMENT_SET_NO":999,"REV_AT_EPOCH":391,"BSTAR":0.00082944,"MEAN_MOTION_DOT":0.00162383,"MEAN_MOTION_DDOT":0}]
