KUIPER-00275            
1 67793U 26030AF  26062.98090013  .00042109  00000+0  12453-2 0  9991
2 67793  51.8836 246.8106 0008948  36.3668 323.7924 15.34466074  4210
KUIPER-00276            
1 67794U 26030AG  26063.01068779  .00020027  00000+0  65804-3 0  9995
2 67794  51.8812 246.9957 0018665  50.7357 309.5279 15.31388844  4212
KUIPER-00279            
1 67795U 26030AH  26062.97476083  .00032925  00000+0  95812-3 0  9993
2 67795  51.8794 246.7601 0006293  32.6075 327.5298 15.35111120  4212
CREW DRAGON 12          
1 67796U 26031A   26063.15679535  .00010207  00000+0  19684-3 0  9995
2 67796  51.6316  99.7104 0008201 155.0339 205.1047 15.48434477555793
STARLINK-36800          
1 67797U 26032A   26063.10309448  .00198092  00000+0  12952-2 0  9994
2 67797  97.2836 249.3103 0001722  91.0621 269.0841 15.75246120  3901
STARLINK-36798          
1 67798U 26032B   26063.16670139 -.01982814  00000+0 -13461-1 0  9990
2 67798  97.2838 249.4160 0002063  80.7038   8.2191 15.78148275  3832
STARLINK-36804          
1 67799U 26032C   26063.10132841  .00243074  00000+0  15788-2 0  9998
2 67799  97.2834 249.3125 0001798  79.8543 280.2925 15.75273970  3906
STARLINK-36354          
1 67800U 26032D   26063.16670139 -.00158691  00000+0 -10792-2 0  9996
2 67800  97.2841 249.4099 0001883  97.3073 335.2565 15.75267380  3893
STARLINK-36773          
1 67801U 26032E   26063.16670139 -.00035567  00000+0 -23861-3 0  9995
2 67801  97.2838 249.3903 0001491  91.3891 297.2162 15.75187130  3838
STARLINK-36739          
1 67802U 26032F   26063.14576528  .00205157  00000+0  10416-2 0  9994
2 67802  97.2841 249.4050 0001246  88.5871 271.5540 15.80924847  3915
STARLINK-36768          
1 67803U 26032G   26063.16670139  .00058619  00000+0  39192-3 0  9992
2 67803  97.2838 249.4044 0001575  95.3037 327.3079 15.75145886  3896
STARLINK-36792          
1 67804U 26032H   26063.16670139 -.00018247  00000+0 -12177-3 0  9992
2 67804  97.2837 249.3978 0001628  78.1665 330.4368 15.75180799  3838
STARLINK-36782          
1 67805U 26032J   26063.14404008  .00299669  00000+0  15023-2 0  9990
2 67805  97.2834 249.4068 0001426  86.6252 273.5179 15.80958294  3914
STARLINK-36389          
1 67806U 26032K   26063.16670139 -.00019589  00000+0 -13075-3 0  9992
2 67806  97.2838 249.4246 0001840  85.6213  26.9546 15.75191211  3890
STARLINK-36382          
1 67807U 26032L   26063.16670139 -.00054666  00000+0 -36755-3 0  9998
2 67807  97.2839 249.4290 0001900  83.1959  41.3539 15.75215109  3838
STARLINK-36811          
1 67808U 26032M   26063.14073360  .00162383  00000+0  82944-3 0  9995
2 67808  97.2833 249.4109 0001647  65.1467 294.9973 15.80904516  3914
